[Satellite]
VERSION=1.1
NAME=INTELSAT 23 (IS-23)
NICKNAME=INTELSAT 23 (IS-23)
TLE1=1 38867U 12057A   15051.48304605 -.00000308  00000-0  00000+0 0  9990
TLE2=2 38867   0.0275 242.3722 0001443  79.9198 308.6688  1.00274169  8653
